IRIDIUM 119             
1 42959U 17061E   23274.87887322  .00000191  00000+0  61067-4 0  9991
2 42959  86.3923  78.6922 0002145  83.6897 276.4543 14.34219230313017
IRIDIUM 107             
1 42960U 17061F   23274.89790458  .00000199  00000+0  64105-4 0  9992
2 42960  86.3922  78.6993 0001955  84.6400 275.5019 14.34218519313023
IRIDIUM 132             
1 42961U 17061G   23274.83448210  .00000180  00000+0  57364-4 0  9992
2 42961  86.3923  78.7120 0002103  83.5383 276.6053 14.34218630313015
IRIDIUM 136             
1 42962U 17061H   23275.00572746  .00000171  00000+0  54142-4 0  9996
2 42962  86.3923  78.6423 0002315  87.1365 273.0096 14.34217778313050
IRIDIUM 139             
1 42963U 17061J   23275.01206840  .00000184  00000+0  58755-4 0  9995
2 42963  86.3923  78.6860 0001990  84.5804 275.5619 14.34219281313063
IRIDIUM 125             
1 42964U 17061K   23274.85984657  .00000196  00000+0  63011-4 0  9990
2 42964  86.3925  78.7926 0002046  82.3273 277.8155 14.34219468313055
IRIDIUM 135             
1 43070U 17083A   23274.76419032  .00000576  00000+0  19842-3 0  9997
2 43070  86.4027  15.5213 0001960 101.3977 258.7439 14.34224232302330
IRIDIUM 138             
1 43071U 17083B   23275.20818431  .00000612  00000+0  21160-3 0  9991
2 43071  86.4017  15.0860 0002188  88.5657 271.5790 14.34221333302384
